name,street,postal_code,city,phone,website
Bunnig & Partners Accountants + Adviseurs BV,Vijf Meilaan 135A,2321RK,Leiden,+31715311321,https://www.goudengids.nl/nl/bedrijf/Leiden/L118942746/Bunnig+%26+Partners+Accountants+%2b+Adviseurs+BV/
Cramer Accountants en Belastingadviseurs BV,Zijlweg 78,2013DK,Haarlem,+31235316255,https://www.goudengids.nl/nl/bedrijf/Haarlem/L118457329/Cramer+Accountants+en+Belastingadviseurs+BV/
Kropff en Partners Fiscalisten etc,Deventerweg 111,7203AE,Zutphen,+31575584633,https://www.goudengids.nl/nl/bedrijf/Zutphen/L120182573/Kropff+en+Partners+Fiscalisten+etc/
Groeneveld Verhart Accountantskantoor Belastingadviesbureau,Generaal de la Reijlaan 17,1404BM,Bussum,+31356991620,https://www.goudengids.nl/nl/bedrijf/Bussum/L120183397/Groeneveld+Verhart+Accountantskantoor+Belastingadviesbureau/
Bentacera,K R Poststraat 121,8441EN,Heerenveen,+31883210850,https://www.goudengids.nl/nl/bedrijf/Heerenveen/L120229837/Bentacera/
Heijkants & Partners BV,'s-Gravelandseweg 131,1217ER,Hilversum,+31356244784,https://www.goudengids.nl/nl/bedrijf/Hilversum/L145597678/Heijkants+%26+Partners+BV/
Eenkhoorn & Bakker Accountants Belastingadviseurs,Nijverheidstraat 51,8281JD,Genemuiden,+31383030404,https://www.goudengids.nl/nl/bedrijf/Genemuiden/L118264525/Eenkhoorn+%26+Bakker+Accountants+Belastingadviseurs/
DOK Accountants en Adviseurs,Kromme Steenweg 4,5707CC,Helmond,+31492546750,https://www.goudengids.nl/nl/bedrijf/Helmond/L119021974/DOK+Accountants+en+Adviseurs/
Accountants en adviseurs Van Arkel & Wiggers,Schipholweg 121,2316XC,Leiden,+31715680621,https://www.goudengids.nl/nl/bedrijf/Leiden/L118447544/Accountants+en+adviseurs+Van+Arkel+%26+Wiggers/
Accountantskantoor BBB voor het MKB,Visseringlaan 18,2288ER,Rijswijk zh,+31703907860,https://www.goudengids.nl/nl/bedrijf/Rijswijk+zh/L120195921/Accountantskantoor+BBB+voor+het+MKB/
Accountantskantoor Propstra,Westersingel 42,8913CL,Leeuwarden,+31582125476,https://www.goudengids.nl/nl/bedrijf/Leeuwarden/L145579003/Accountantskantoor+Propstra/
Wert accountants & belastingadviseurs De,Europalaan 26C,5623LJ,Eindhoven,+31402444288,https://www.goudengids.nl/nl/bedrijf/Eindhoven/L145640503/Wert+accountants+%26+belastingadviseurs+De/
Pors Accountants,Hoofdstraat 20,9561JA,Ter Apel,+31599584030,https://www.goudengids.nl/nl/bedrijf/Ter+Apel/L145745017/Pors+Accountants/
Pors Accountants,Bislett 5,7825SB,Emmen,+31591620014,https://www.goudengids.nl/nl/bedrijf/Emmen/L145745019/Pors+Accountants/
Bregman Accountants BV,RÃ¶ntgenlaan 19,2719DX,Zoetermeer,+31793630456,https://www.goudengids.nl/nl/bedrijf/Zoetermeer/L119150306/Bregman+Accountants+BV/
Van Brugge & Partners BV,Wilhelminastraat 5,2011VH,Haarlem,+31235316550,https://www.goudengids.nl/nl/bedrijf/Haarlem/L120200008/Van+Brugge+%26+Partners+BV/
Slof & vd Meer Accountants en Belastingadviseurs,Vulcanusweg 263 A,2624AV,Delft,+31152140313,https://www.goudengids.nl/nl/bedrijf/Delft/L119472920/Slof+%26+vd+Meer+Accountants+en+Belastingadviseurs/
Beek & Co Accountantskantoor C J van,Brediusweg 18,1401AG,Bussum,+31356925800,https://www.goudengids.nl/nl/bedrijf/Bussum/L145608803/Beek+%26+Co+Accountantskantoor+C+J+van/
Pors Accountants,van Beresteijnstraat 5,9641AA,Veendam,+31598632732,https://www.goudengids.nl/nl/bedrijf/Veendam/L145745018/Pors+Accountants/
Koopman & Co Accountants en Belastingadviseurs,Zandvaart 43,1764NK,Breezand,+31223522344,https://www.goudengids.nl/nl/bedrijf/Breezand/L142975055/Koopman+%26+Co+Accountants+en+Belastingadviseurs/
